<?xml version="1.0" encoding="UTF-8"?>
<ndm xmlns:xsi="http://www.w3.org/2001/XMLSchema-instance" xsi:noNamespaceSchemaLocation="https://sanaregistry.org/r/ndmxml_unqualified/ndmxml-2.0.0-master-2.0.xsd">
<omm id="CCSDS_OMM_VERS" version="2.0">
<header><CREATION_DATE/><ORIGINATOR/></header><body><segment><metadata><OBJECT_NAME>ORBCOMM-X</OBJECT_NAME><OBJECT_ID>1991-050C</OBJECT_ID><CENTER_NAME>EARTH</CENTER_NAME><REF_FRAME>TEME</REF_FRAME><TIME_SYSTEM>UTC</TIME_SYSTEM><MEAN_ELEMENT_THEORY>SGP4</MEAN_ELEMENT_THEORY></metadata><data><meanElements><EPOCH>2025-07-24T04:33:41.144256</EPOCH><MEAN_MOTION>14.43284536</MEAN_MOTION><ECCENTRICITY>.0004848</ECCENTRICITY><INCLINATION>98.3418</INCLINATION><RA_OF_ASC_NODE>271.0330</RA_OF_ASC_NODE><ARG_OF_PERICENTER>80.2408</ARG_OF_PERICENTER><MEAN_ANOMALY>279.9330</MEAN_ANOMALY></meanElements><tleParameters><EPHEMERIS_TYPE>0</EPHEMERIS_TYPE><CLASSIFICATION_TYPE>U</CLASSIFICATION_TYPE><NORAD_CAT_ID>21576</NORAD_CAT_ID><ELEMENT_SET_NO>999</ELEMENT_SET_NO><REV_AT_EPOCH>78745</REV_AT_EPOCH><BSTAR>.10357E-3</BSTAR><MEAN_MOTION_DOT>.306E-5</MEAN_MOTION_DOT><MEAN_MOTION_DDOT>0</MEAN_MOTION_DDOT></tleParameters></data></segment></body></omm>
<omm id="CCSDS_OMM_VERS" version="2.0">
<header><CREATION_DATE/><ORIGINATOR/></header><body><segment><metadata><OBJECT_NAME>ORBCOMM FM01</OBJECT_NAME><OBJECT_ID>1995-017A</OBJECT_ID><CENTER_NAME>EARTH</CENTER_NAME><REF_FRAME>TEME</REF_FRAME><TIME_SYSTEM>UTC</TIME_SYSTEM><MEAN_ELEMENT_THEORY>SGP4</MEAN_ELEMENT_THEORY></metadata><data><meanElements><EPOCH>2025-07-24T18:55:26.893344</EPOCH><MEAN_MOTION>14.90398517</MEAN_MOTION><ECCENTRICITY>.0005621</ECCENTRICITY><INCLINATION>69.9650</INCLINATION><RA_OF_ASC_NODE>340.3478</RA_OF_ASC_NODE><ARG_OF_PERICENTER>261.4070</ARG_OF_PERICENTER><MEAN_ANOMALY>98.6448</MEAN_ANOMALY></meanElements><tleParameters><EPHEMERIS_TYPE>0</EPHEMERIS_TYPE><CLASSIFICATION_TYPE>U</CLASSIFICATION_TYPE><NORAD_CAT_ID>23545</NORAD_CAT_ID><ELEMENT_SET_NO>999</ELEMENT_SET_NO><REV_AT_EPOCH>61811</REV_AT_EPOCH><BSTAR>.65835E-3</BSTAR><MEAN_MOTION_DOT>.6343E-4</MEAN_MOTION_DOT><MEAN_MOTION_DDOT>0</MEAN_MOTION_DDOT></tleParameters></data></segment></body></omm>
<omm id="CCSDS_OMM_VERS" version="2.0">
<header><CREATION_DATE/><ORIGINATOR/></header><body><segment><metadata><OBJECT_NAME>ORBCOMM FM02</OBJECT_NAME><OBJECT_ID>1995-017B</OBJECT_ID><CENTER_NAME>EARTH</CENTER_NAME><REF_FRAME>TEME</REF_FRAME><TIME_SYSTEM>UTC</TIME_SYSTEM><MEAN_ELEMENT_THEORY>SGP4</MEAN_ELEMENT_THEORY></metadata><data><meanElements><EPOCH>2025-07-24T20:13:44.989248</EPOCH><MEAN_MOTION>14.91318879</MEAN_MOTION><ECCENTRICITY>.0006943</ECCENTRICITY><INCLINATION>69.9660</INCLINATION><RA_OF_ASC_NODE>359.4784</RA_OF_ASC_NODE><ARG_OF_PERICENTER>259.4107</ARG_OF_PERICENTER><MEAN_ANOMALY>100.6266</MEAN_ANOMALY></meanElements><tleParameters><EPHEMERIS_TYPE>0</EPHEMERIS_TYPE><CLASSIFICATION_TYPE>U</CLASSIFICATION_TYPE><NORAD_CAT_ID>23546</NORAD_CAT_ID><ELEMENT_SET_NO>999</ELEMENT_SET_NO><REV_AT_EPOCH>61777</REV_AT_EPOCH><BSTAR>.77776E-3</BSTAR><MEAN_MOTION_DOT>.7688E-4</MEAN_MOTION_DOT><MEAN_MOTION_DDOT>0</MEAN_MOTION_DDOT></tleParameters></data></segment></body></omm>
<omm id="CCSDS_OMM_VERS" version="2.0">
<header><CREATION_DATE/><ORIGINATOR/></header><body><segment><metadata><OBJECT_NAME>ORBCOMM FM08</OBJECT_NAME><OBJECT_ID>1997-084A</OBJECT_ID><CENTER_NAME>EARTH</CENTER_NAME><REF_FRAME>TEME</REF_FRAME><TIME_SYSTEM>UTC</TIME_SYSTEM><MEAN_ELEMENT_THEORY>SGP4</MEAN_ELEMENT_THEORY></metadata><data><meanElements><EPOCH>2025-07-24T15:08:01.461408</EPOCH><MEAN_MOTION>14.45892044</MEAN_MOTION><ECCENTRICITY>.0004675</ECCENTRICITY><INCLINATION>45.0126</INCLINATION><RA_OF_ASC_NODE>188.1081</RA_OF_ASC_NODE><ARG_OF_PERICENTER>57.1396</ARG_OF_PERICENTER><MEAN_ANOMALY>302.9905</MEAN_ANOMALY></meanElements><tleParameters><EPHEMERIS_TYPE>0</EPHEMERIS_TYPE><CLASSIFICATION_TYPE>U</CLASSIFICATION_TYPE><NORAD_CAT_ID>25112</NORAD_CAT_ID><ELEMENT_SET_NO>999</ELEMENT_SET_NO><REV_AT_EPOCH>44679</REV_AT_EPOCH><BSTAR>.38366E-3</BSTAR><MEAN_MOTION_DOT>.1232E-4</MEAN_MOTION_DOT><MEAN_MOTION_DDOT>0</MEAN_MOTION_DDOT></tleParameters></data></segment></body></omm>
<omm id="CCSDS_OMM_VERS" version="2.0">
<header><CREATION_DATE/><ORIGINATOR/></header><body><segment><metadata><OBJECT_NAME>ORBCOMM FM10</OBJECT_NAME><OBJECT_ID>1997-084B</OBJECT_ID><CENTER_NAME>EARTH</CENTER_NAME><REF_FRAME>TEME</REF_FRAME><TIME_SYSTEM>UTC</TIME_SYSTEM><MEAN_ELEMENT_THEORY>SGP4</MEAN_ELEMENT_THEORY></metadata><data><meanElements><EPOCH>2025-07-24T23:06:18.986400</EPOCH><MEAN_MOTION>14.45676881</MEAN_MOTION><ECCENTRICITY>.0004649</ECCENTRICITY><INCLINATION>45.0138</INCLINATION><RA_OF_ASC_NODE>188.9600</RA_OF_ASC_NODE><ARG_OF_PERICENTER>13.7478</ARG_OF_PERICENTER><MEAN_ANOMALY>346.3499</MEAN_ANOMALY></meanElements><tleParameters><EPHEMERIS_TYPE>0</EPHEMERIS_TYPE><CLASSIFICATION_TYPE>U</CLASSIFICATION_TYPE><NORAD_CAT_ID>25113</NORAD_CAT_ID><ELEMENT_SET_NO>999</ELEMENT_SET_NO><REV_AT_EPOCH>62198</REV_AT_EPOCH><BSTAR>.34882E-3</BSTAR><MEAN_MOTION_DOT>.1101E-4</MEAN_MOTION_DOT><MEAN_MOTION_DDOT>0</MEAN_MOTION_DDOT></tleParameters></data></segment></body></omm>
<omm id="CCSDS_OMM_VERS" version="2.0">
<header><CREATION_DATE/><ORIGINATOR/></header><body><segment><metadata><OBJECT_NAME>ORBCOMM FM11</OBJECT_NAME><OBJECT_ID>1997-084C</OBJECT_ID><CENTER_NAME>EARTH</CENTER_NAME><REF_FRAME>TEME</REF_FRAME><TIME_SYSTEM>UTC</TIME_SYSTEM><MEAN_ELEMENT_THEORY>SGP4</MEAN_ELEMENT_THEORY></metadata><data><meanElements><EPOCH>2025-07-24T10:06:04.273920</EPOCH><MEAN_MOTION>14.45424786</MEAN_MOTION><ECCENTRICITY>.0005325</ECCENTRICITY><INCLINATION>45.0124</INCLINATION><RA_OF_ASC_NODE>192.2612</RA_OF_ASC_NODE><ARG_OF_PERICENTER>16.8054</ARG_OF_PERICENTER><MEAN_ANOMALY>343.2973</MEAN_ANOMALY></meanElements><tleParameters><EPHEMERIS_TYPE>0</EPHEMERIS_TYPE><CLASSIFICATION_TYPE>U</CLASSIFICATION_TYPE><NORAD_CAT_ID>25114</NORAD_CAT_ID><ELEMENT_SET_NO>999</ELEMENT_SET_NO><REV_AT_EPOCH>44689</REV_AT_EPOCH><BSTAR>.33521E-3</BSTAR><MEAN_MOTION_DOT>.1046E-4</MEAN_MOTION_DOT><MEAN_MOTION_DDOT>0</MEAN_MOTION_DDOT></tleParameters></data></segment></body></omm>
<omm id="CCSDS_OMM_VERS" version="2.0">
<header><CREATION_DATE/><ORIGINATOR/></header><body><segment><metadata><OBJECT_NAME>ORBCOMM FM12</OBJECT_NAME><OBJECT_ID>1997-084D</OBJECT_ID><CENTER_NAME>EARTH</CENTER_NAME><REF_FRAME>TEME</REF_FRAME><TIME_SYSTEM>UTC</TIME_SYSTEM><MEAN_ELEMENT_THEORY>SGP4</MEAN_ELEMENT_THEORY></metadata><data><meanElements><EPOCH>2025-07-24T09:11:16.321920</EPOCH><MEAN_MOTION>14.45446509</MEAN_MOTION><ECCENTRICITY>.0004593</ECCENTRICITY><INCLINATION>45.0131</INCLINATION><RA_OF_ASC_NODE>192.1898</RA_OF_ASC_NODE><ARG_OF_PERICENTER>8.1573</ARG_OF_PERICENTER><MEAN_ANOMALY>351.9352</MEAN_ANOMALY></meanElements><tleParameters><EPHEMERIS_TYPE>0</EPHEMERIS_TYPE><CLASSIFICATION_TYPE>U</CLASSIFICATION_TYPE><NORAD_CAT_ID>25115</NORAD_CAT_ID><ELEMENT_SET_NO>999</ELEMENT_SET_NO><REV_AT_EPOCH>44689</REV_AT_EPOCH><BSTAR>.35366E-3</BSTAR><MEAN_MOTION_DOT>.1113E-4</MEAN_MOTION_DOT><MEAN_MOTION_DDOT>0</MEAN_MOTION_DDOT></tleParameters></data></segment></body></omm>
<omm id="CCSDS_OMM_VERS" version="2.0">
<header><CREATION_DATE/><ORIGINATOR/></header><body><segment><metadata><OBJECT_NAME>ORBCOMM FM09</OBJECT_NAME><OBJECT_ID>1997-084E</OBJECT_ID><CENTER_NAME>EARTH</CENTER_NAME><REF_FRAME>TEME</REF_FRAME><TIME_SYSTEM>UTC</TIME_SYSTEM><MEAN_ELEMENT_THEORY>SGP4</MEAN_ELEMENT_THEORY></metadata><data><meanElements><EPOCH>2025-07-24T23:18:42.996672</EPOCH><MEAN_MOTION>14.45322770</MEAN_MOTION><ECCENTRICITY>.0006115</ECCENTRICITY><INCLINATION>45.0135</INCLINATION><RA_OF_ASC_NODE>190.3369</RA_OF_ASC_NODE><ARG_OF_PERICENTER>8.8015</ARG_OF_PERICENTER><MEAN_ANOMALY>351.2942</MEAN_ANOMALY></meanElements><tleParameters><EPHEMERIS_TYPE>0</EPHEMERIS_TYPE><CLASSIFICATION_TYPE>U</CLASSIFICATION_TYPE><NORAD_CAT_ID>25116</NORAD_CAT_ID><ELEMENT_SET_NO>999</ELEMENT_SET_NO><REV_AT_EPOCH>44694</REV_AT_EPOCH><BSTAR>.36876E-3</BSTAR><MEAN_MOTION_DOT>.1163E-4</MEAN_MOTION_DOT><MEAN_MOTION_DDOT>0</MEAN_MOTION_DDOT></tleParameters></data></segment></body></omm>

</ndm>
