ORBCOMM-X               
1 21576U 91050C   25205.19005954  .00000306  00000+0  10357-3 0  9990
2 21576  98.3418 271.0330 0004848  80.2408 279.9330 14.43284536787452
ORBCOMM FM01            
1 23545U 95017A   25205.78850571  .00006343  00000+0  65835-3 0  9991
2 23545  69.9650 340.3478 0005621 261.4070  98.6448 14.90398517618112
ORBCOMM FM02            
1 23546U 95017B   25205.84288182  .00007688  00000+0  77776-3 0  9992
2 23546  69.9660 359.4784 0006943 259.4107 100.6266 14.91318879617778
ORBCOMM FM08            
1 25112U 97084A   25205.63057247  .00001232  00000+0  38366-3 0  9993
2 25112  45.0126 188.1081 0004675  57.1396 302.9905 14.45892044446790
ORBCOMM FM10            
1 25113U 97084B   25205.96271975  .00001101  00000+0  34882-3 0  9990
2 25113  45.0138 188.9600 0004649  13.7478 346.3499 14.45676881621984
ORBCOMM FM11            
1 25114U 97084C   25205.42088280  .00001046  00000+0  33521-3 0  9994
2 25114  45.0124 192.2612 0005325  16.8054 343.2973 14.45424786446890
ORBCOMM FM12            
1 25115U 97084D   25205.38282780  .00001113  00000+0  35366-3 0  9995
2 25115  45.0131 192.1898 0004593   8.1573 351.9352 14.45446509446894
ORBCOMM FM09            
1 25116U 97084E   25205.97133098  .00001163  00000+0  36876-3 0  9990
2 25116  45.0135 190.3369 0006115   8.8015 351.2942 14.45322770446949
